title,map,url,comment,lat,lng,address
Ronacher #WeAreMusical,4,https://www.google.com/maps/place/Ronacher+%23WeAreMusical/data=!4m2!3m1!1s0x476d079e0ce3c1f9:0x6352e7140c19382b,,48.20521,16.3750672,"Seilerstätte 9, 1010 Wien, Austria"
Kapuzinergruft,4,https://www.google.com/maps/place/Kapuzinergruft/data=!4m2!3m1!1s0x476d079eaa0b491b:0x7de4fc82c4ebbbd,,48.2057146,16.3700245,"Tegetthoffstraße 2, 1010 Wien, Austria"
Gartenbaukino,1,https://www.google.com/maps/place/Gartenbaukino/data=!4m2!3m1!1s0x476d077594b288db:0x81d18fc2340f714,,48.2056486,16.3783174,"Parkring 12, 1010 Wien, Austria"
Ankeruhr,3,https://www.google.com/maps/place/Ankeruhr/data=!4m2!3m1!1s0x476d07a21cab0953:0x1235c041b8517825,,48.2107949,16.373668,"Hoher Markt 10-11, 1010 Wien, Austria"
Café Central,3,https://www.google.com/maps/place/Caf%C3%A9+Central/data=!4m2!3m1!1s0x476d0797f70c3b2f:0x5bfa873ffb422e49,,48.21042740000001,16.3654339,"Herrengasse 14, 1010 Wien, Austria"
Denkmal für die Verfolgten der NS-Militärjustiz,1,https://www.google.com/maps/place/Denkmal+f%C3%BCr+die+Verfolgten+der+NS-Milit%C3%A4rjustiz/data=!4m2!3m1!1s0x476d07976484c54f:0xb34b7ee6ee3ff125,,48.208067,16.3633472,"Ballhauspl. 2, 1010 Wien, Austria"
Jüdisches Museum der Stadt Wien GmbH,4,https://www.google.com/maps/place/J%C3%BCdisches+Museum+der+Stadt+Wien+GmbH/data=!4m2!3m1!1s0x476d07993bf9b6ef:0xbccbc935dc1d75e7,,48.2072113,16.3694569,"Dorotheergasse 11, 1010 Wien, Austria"
Mozarthaus Vienna,4,https://www.google.com/maps/place/Mozarthaus+Vienna/data=!4m2!3m1!1s0x476d079f09ce0173:0x926485b1eb8601e1,,48.2081643,16.3749633,"Mozarthaus, Domgasse 5, 1010 Wien, Austria"
Katholische Kirche St. Peter,4,https://www.google.com/maps/place/Katholische+Kirche+St.+Peter/data=!4m2!3m1!1s0x476d079892b8ee15:0x5f501eacebe95875,,48.209352,16.3697731,"Peterspl. 1, 1010 Wien, Austria"
Domkirche St. Stephan,4,https://www.google.com/maps/place/Domkirche+St.+Stephan/data=!4m2!3m1!1s0x476d079f223feccf:0x179757f3fadc3159,,48.2084114,16.3734707,"Stephansplatz 3, 1010 Wien, Austria"
Sisi Museum Hofburg Wien,3,https://www.google.com/maps/place/Sisi+Museum+Hofburg+Wien/data=!4m2!3m1!1s0x476d07999dd985a5:0x3b91f7428c9a009c,,48.2076979,16.365938,"Michaelerkuppel, 1010 Wien, Austria"
Hofburg,1,https://www.google.com/maps/place/Hofburg/data=!4m2!3m1!1s0x476d0799bf2006df:0x8685168014c4425f,,48.2056578,16.3647803,"1010 Vienna, Austria"
Albertina,4,https://www.google.com/maps/place/Albertina/data=!4m2!3m1!1s0x476d079bf27e5ac1:0x66ef8a989f37deb8,,48.2046992,16.3681824,"Albertinapl. 1, 1010 Wien, Austria"
Wiener Staatsoper,1,https://www.google.com/maps/place/Wiener+Staatsoper/data=!4m2!3m1!1s0x476d079c861dbfd5:0xfd59268d25377d56,,48.2034306,16.3692034,"Opernring 2, 1010 Wien, Austria"
Annakirche,4,https://www.google.com/maps/place/Annakirche/data=!4m2!3m1!1s0x476d079c306cc20d:0x5bad66563db2e8a5,,48.2043601,16.3721273,"Annagasse 3B, 1010 Wien, Austria"
Kursalon Wien,1,https://www.google.com/maps/place/Kursalon+Wien/data=!4m2!3m1!1s0x476d07766980c95d:0x514c1953cdf87130,,48.20338659999999,16.3780108,"Johannesgasse 33, 1010 Wien, Austria"
MAK - Museum für angewandte Kunst,1,https://www.google.com/maps/place/MAK+-+Museum+f%C3%BCr+angewandte+Kunst/data=!4m2!3m1!1s0x476d077521e1b063:0xa501c28c5fde062f,,48.2076148,16.3815476,"Stubenring 5, 1010 Wien, Austria"
Urania-Sternwarte,1,https://www.google.com/maps/place/Urania-Sternwarte/data=!4m2!3m1!1s0x476d070a533f0755:0x9db8f06dbf5b13ae,,48.2115389,16.3842667,"Uraniastraße 1, 1010 Wien, Austria"
Österreichische Postsparkasse,2,https://www.google.com/maps/place/%C3%96sterreichische+Postsparkasse/data=!4m2!3m1!1s0x476d070abf3ee735:0x5add3cd72e42f1ed,,48.20996969999999,16.3812037,"Georg-Coch-Platz 2, 1010 Wien, Austria"
Jesuitenkirche – Universitätskirche (Mariä Himmelfahrt),3,https://www.google.com/maps/place/Jesuitenkirche+%E2%80%93+Universit%C3%A4tskirche+(Mari%C3%A4+Himmelfahrt)/data=!4m2!3m1!1s0x476d079fee315565:0x3f986de57cfe3168,,48.2090088,16.3775837,"Doktor-Ignaz-Seipel-Platz 1, 1010 Wien, Austria"
Hard Rock Cafe,2,https://www.google.com/maps/place/Hard+Rock+Cafe/data=!4m2!3m1!1s0x476d07a1ba3ad31d:0x330439b3d8a7d09d,,48.2113174,16.3754822,"Rotenturmstraße 25, 1010 Wien, Austria"
ballroom 1010 - damn.good.dumplings,3,https://www.google.com/maps/place/ballroom+1010+-+damn.good.dumplings/data=!4m2!3m1!1s0x476d07ad2154916f:0xc1b0f09bb323b419,,48.21135950000001,16.3718146,"Wipplingerstraße 1, 1010 Wien, Austria"
Shakespeare & Company,2,https://www.google.com/maps/place/Shakespeare+%26+Company/data=!4m2!3m1!1s0x476d07a189054e3d:0x936a6293528c5c14,,48.2118595,16.3736395,"Sterngasse 2, 1010 Wien, Austria"
Mahnmal für die österreichischen jüdischen Opfer der Schoah,3,https://www.google.com/maps/place/Mahnmal+f%C3%BCr+die+%C3%B6sterreichischen+j%C3%BCdischen+Opfer+der+Schoah/data=!4m2!3m1!1s0x476d07a289c281fd:0xf77159207dcfb133,,48.2116915,16.369482,"Judenplatz Holocaust Memorial, Judenpl., 1010 Wien, Austria"
Stadtpalais Liechtenstein,1,https://www.google.com/maps/place/Stadtpalais+Liechtenstein/data=!4m2!3m1!1s0x476d0797baf91199:0xd74ba3abb2ac3438,,48.2099609,16.3627395,"Bankgasse 9, 1010 Wien, Austria"
Burgtheater,1,https://www.google.com/maps/place/Burgtheater/data=!4m2!3m1!1s0x476d079648c523cf:0x3a513446d5a96a5e,,48.21029619999999,16.36146,"Universitätsring 2, 1010 Wien, Austria"
Wien Museum Beethoven Pasqualatihaus,1,https://www.google.com/maps/place/Wien+Museum+Beethoven+Pasqualatihaus/data=!4m2!3m1!1s0x476d07bd9ae21931:0xdffb49787998e9f3,,48.212446,16.3622924,"Mölker Bastei 8, 1010 Wien, Austria"
Palais Daun-Kinsky,1,https://www.google.com/maps/place/Palais+Daun-Kinsky/data=!4m2!3m1!1s0x476d07bd60a5f251:0x924ecb678d55a97,,48.2117089,16.3642487,"Freyung 4, 1010 Wien, Austria"
Schottenstift,1,https://www.google.com/maps/place/Schottenstift/data=!4m2!3m1!1s0x476d07bd6842e9e5:0xc6b79e523c70b3f6,,48.20806959999999,16.3713095,"Vienna, Austria"
Juridicum,1,https://www.google.com/maps/place/Juridicum/data=!4m2!3m1!1s0x476d07bce2488ea9:0x4693dc3f6282252e,,48.2139929,16.3654288,"Schottenbastei 10-16, 1010 Wien, Austria"
Börse Büros am Ring,1,https://www.google.com/maps/place/B%C3%B6rse+B%C3%BCros+am+Ring/data=!4m2!3m1!1s0x476d07bcc073e029:0xd00a4ac74c503bca,,48.2152021,16.366467,"Wipplingerstraße 34, 1010 Wien, Austria"
Veggiezz,2,https://www.google.com/maps/place/Veggiezz/data=!4m2!3m1!1s0x476d078769cc826f:0xf0dee97c2b9adf98,,48.2129363,16.3722996,"Salzgries 9, 1010 Wien, Austria"
Katholische Kirche Maria am Gestade,2,https://www.google.com/maps/place/Katholische+Kirche+Maria+am+Gestade/data=!4m2!3m1!1s0x476d07a2504b5aff:0x239bee91415d837d,,48.2129838,16.3701764,"Salvatorgasse 12, 1010 Wien, Austria"
Spielplatz im Hermann-Gmeiner-Park,1,https://www.google.com/maps/place/Spielplatz+im+Hermann-Gmeiner-Park/data=!4m2!3m1!1s0x476d0751bb78938d:0x24be8d4561efc0fc,,48.2145539,16.3674372,"Innere Stadt, 1010 Wien, Austria"
Schleusenpark,1,https://www.google.com/maps/place/Schleusenpark/data=!4m2!3m1!1s0x476d074dc3851a39:0xe0ceead6fedddc3f,,48.2172345,16.3722545,"Schleusenpark, Franz-Josefs-Kai, 1010 Wien, Austria"
Spielplatz Rudolfspark,2,https://www.google.com/maps/place/Spielplatz+Rudolfspark/data=!4m2!3m1!1s0x476d07a39dcd80c9:0x71416665316c60f,,48.2145345,16.3716225,"Rudolfspl. 1, 1010 Wien, Austria"
